0 INTELSAT 602
1 20315U 89087A   13282.13735272 -.00000247  00000-0  10000-3 0  7513
2 20315 010.3198 046.6686 0006568 075.6636 284.4163 00.99008958 85468
0 INTELSAT 602
1 20315U 89087A   13284.15729568 -.00000258  00000-0  10000-3 0  7521
2 20315 010.3234 046.6455 0006545 075.5138 284.5683 00.99008552 85484
0 INTELSAT 602
1 20315U 89087A   13290.21708264 -.00000199  00000-0  10000-3 0  7530
2 20315 010.3340 046.5770 0006495 075.1906 284.8603 00.99006529 85548
0 INTELSAT 602
1 20315U 89087A   13290.21709531  .00000000  00000-0  10000-3 0  7549
2 20315 010.3365 046.5768 0005819 082.5208 277.5331 00.99002547 85541
0 INTELSAT 602
1 20315U 89087A   13293.24700227 -.00000135  00000-0  10000-3 0  7548
2 20315 010.3397 046.5422 0006077 077.8675 282.1562 00.99005455 85577
0 INTELSAT 602
1 20315U 89087A   13295.26700716 -.00000087  00000-0  10000-3 0  7552
2 20315 010.3437 046.5190 0005883 079.2116 280.8109 00.99004879 85597
